NUSAT-1 (FRESCO)        
1 41557U 16033B   22105.55171564  .00013303  00000+0  41986-3 0  9999
2 41557  97.3841 203.2362 0010823 236.6592 180.9495 15.32920429327747
BEESAT-4                
1 41619U 16040W   22104.87937931  .00016011  00000+0  56692-3 0  9997
2 41619  97.2251 157.2675 0008882 352.5306   7.5801 15.29170293311007
CAS-2T & KS-1Q          
1 41847U 16066G   22104.90946611  .00000936  00000+0  14935-3 0  9990
2 41847  98.5565 169.6304 0364907  40.0798 322.6711 14.38487754285211
NAYIF-1 (EO-88)         
1 42017U 17008BX  22105.14165541  .00018621  00000+0  59694-3 0  9990
2 42017  97.2752 172.2562 0006806 114.3013 245.8941 15.32375791287379
ZHUHAI-1 02 (CAS-4B)    
1 42759U 17034B   22105.35690216  .00004295  00000+0  26286-3 0  9990
2 42759  43.0191 320.3543 0009646 256.9816 272.5880 15.11358456266802
ZHUHAI-1 01 (CAS-4A)    
1 42761U 17034D   22105.33055976  .00004524  00000+0  27551-3 0  9990
2 42761  43.0190 319.3339 0010061 259.4561 270.9251 15.11447010266802
MAX VALIER SAT          
1 42778U 17036P   22104.86616300  .00009350  00000+0  36794-3 0  9992
2 42778  97.2138 148.1766 0011450 182.0642 178.0552 15.25783638267200
RADFXSAT (FOX-1B)       
1 43017U 17073E   22105.20766609  .00005659  00000+0  42823-3 0  9995
2 43017  97.6828   1.9794 0251591  35.1989 326.5554 14.80824620237754
FOX-1D (AO-92)          
1 43137U 18004AC  22105.19225233  .00010501  00000+0  38688-3 0  9990
2 43137  97.3724 180.9714 0007373 216.8253 143.2481 15.27985029236674
DIWATA-2B               
1 43678U 18084H   22105.54686464  .00001513  00000+0  15479-3 0  9990
2 43678  97.9588 238.1198 0010965 128.4101 231.8076 14.92039992188479
ES'HAIL 2               
1 43700U 18090A   22104.64713584  .00000147  00000+0  00000+0 0  9999
2 43700   0.0195 176.6281 0002621 240.1963  44.7290  1.00271776 12637
FOX-1CLIFF (AO-95)      
1 43770U 18099N   22105.46065269  .00003101  00000+0  28042-3 0  9999
2 43770  97.6255 173.4466 0015775 124.7269 235.5440 14.96059357183592
ITASAT 1                
1 43786U 18099AE  22105.19360365  .00002609  00000+0  23558-3 0  9990
2 43786  97.6278 174.0685 0016418 119.1613 241.1254 14.96255890183596
JY1SAT (JO-97)          
1 43803U 18099AX  22105.16370387  .00002312  00000+0  20719-3 0  9999
2 43803  97.6247 173.7820 0016080 117.9603 242.3248 14.96667979183602
UWE-4                   
1 43880U 18111E   22104.74087185  .00003009  00000+0  26133-3 0  9993
2 43880  97.6720  12.1694 0012421 167.7522 192.4005 14.97716586178167
NEXUS (FO-99)           
1 43937U 19003F   22104.85528021  .00014457  00000+0  51188-3 0  9995
2 43937  97.1384 140.7291 0021675  26.5490 333.6855 15.29000309180259
PSAT2 (NO-104)          
1 44354U 19036R   22105.48936424  .00058618 -54458-5  59649-3 0  9995
2 44354  28.5272 252.1585 0258025 345.5563  13.7770 15.31773411154984
BRICSAT2 (NO-103)       
1 44355U 19036S   22105.30547281  .01564951  15029-2  17501-2 0  9996
2 44355  28.5129 121.0159 0053522 195.5996 164.2970 16.05427776156264
JAISAT-1                
1 44419U 19038F   22104.70923895  .00009719  00000+0  50480-3 0  9990
2 44419  97.6305  74.3945 0019572 359.3637   0.7567 15.16147572153391
DUCHIFAT-3              
1 44854U 19089C   22105.37032656  .00003729  00000+0  29600-3 0  9994
2 44854  36.9657 114.1866 0006973  63.3360 296.8073 15.00553816128455
CAS-6 (TO-108)          
1 44881U 19093C   22105.50384368  .00000705  00000+0  96128-4 0  9995
2 44881  97.8942 185.6144 0015883  35.7935 324.4338 14.81639413125456
RS-44 & BREEZE-KM R/B   
1 44909U 19096E   22105.17679201  .00000018  00000+0  17522-4 0  9993
2 44909  82.5172 272.3150 0218397 107.6384 254.8696 12.79713228107462
ORBITAL FACTORY 2 (OF-2)
1 45113U 19071C   22105.12479541  .00026074  00000+0  60726-3 0  9997
2 45113  51.6415  10.2045 0008406 304.5270  55.4922 15.42061238123598
HUSKYSAT-1 (HO-107)     
1 45119U 19071J   22105.10034317  .00026129  00000+0  61978-3 0  9990
2 45119  51.6410  10.0217 0008129 300.4507  59.5675 15.41511150123589
BY70-2                  
1 45857U 20042B   22105.52244258  .00007817  00000+0  10676-2 0  9993
2 45857  97.9561 183.0051 0009019 325.2612  34.7984 14.78844420 96154
SALSAT                  
1 46495U 20068K   22104.64087521  .00002754  00000+0  20234-3 0  9997
2 46495  97.7256  45.9579 0017922 130.1453 230.1346 15.04160902 84596
BY70-3                  
1 46839U 20079N   22105.49581403  .00021836  00000+0  56550-3 0  9995
2 46839  97.2026 178.5325 0006570 189.6987 227.6083 15.39042315 80554
RADFXSAT-2 (AO-109)     
1 47311U 21002C   22104.66292950  .00009663  00000+0  40470-3 0  9990
2 47311  60.6851 242.1715 0012074 240.8158 119.1722 15.24094657 68738
UVSQ-SAT                
1 47438U 21006AB  22105.41385381  .00006334  00000+0  34362-3 0  9994
2 47438  97.4439 165.7354 0013638 130.5706 229.6716 15.14822791 67734
DIY-1 (ARDUIQUBE)       
1 47963U 21022AH  22104.96495932  .00019364  00000+0  11484-2 0  9994
2 47963  97.5383   7.1442 0017642 359.8364   0.2857 15.11267120 57350
XW-3 (CAS-9)            
1 50466U 21131B   22105.50069379  .00000193  00000+0  77690-4 0  9993
2 50466  98.5824 182.7801 0003871 352.5736   7.5393 14.38465654 15869
